IRIDIUM 155             
1 43573U 18061E   22327.50959895  .00000192  00000+0  61425-4 0  9997
2 43573  86.3994 240.6162 0001853  78.4975 281.6429 14.34220570226786
IRIDIUM 154             
1 43574U 18061F   22327.49059135  .00000206  00000+0  66339-4 0  9999
2 43574  86.3997 240.6947 0002355  83.0585 277.0879 14.34217773226833
IRIDIUM 163             
1 43575U 18061G   22327.47156606  .00000209  00000+0  67627-4 0  9993
2 43575  86.3994 240.6581 0002147  93.2444 266.8997 14.34215838226805
IRIDIUM 156             
1 43576U 18061H   22327.30664683  .00000191  00000+0  61064-4 0  9994
2 43576  86.3995 240.7326 0001804  88.4610 271.6793 14.34220769226778
IRIDIUM 164             
1 43577U 18061J   22327.49693664  .00000213  00000+0  69153-4 0  9998
2 43577  86.3996 240.6734 0002328  86.2019 273.9443 14.34215334226840
IRIDIUM 159             
1 43578U 18061K   22327.46521691  .00000217  00000+0  70495-4 0  9991
2 43578  86.3994 240.6510 0002299  84.0113 276.1345 14.34214711226809
IRIDIUM 180             
1 43922U 19002A   22327.11586593  .00000212  00000+0  68660-4 0  9990
2 43922  86.4002 177.7651 0002479  90.8033 269.3447 14.34217499202363
IRIDIUM 176             
1 43923U 19002B   22327.10172173  .00000582  00000+0  88420-4 0  9991
2 43923  86.6136 177.8110 0002268  87.7682 272.3795 14.72243722207675
IRIDIUM 168             
1 43924U 19002C   22327.10952520  .00000194  00000+0  62223-4 0  9996
2 43924  86.4003 177.8081 0002270  85.8855 274.2600 14.34216222202346
IRIDIUM 173             
1 43925U 19002D   22327.30614828  .00000203  00000+0  65351-4 0  9991
2 43925  86.4000 177.6683 0002263  88.2297 271.9158 14.34215008202353
IRIDIUM 169             
1 43926U 19002E   22327.37689137  .00000247  00000+0  74232-4 0  9990
2 43926  86.4277 209.1851 0003220 338.0878  22.0182 14.38617194203060
IRIDIUM 172             
1 43927U 19002F   22327.57888986  .00000207  00000+0  66825-4 0  9991
2 43927  86.4001 177.5585 0002373  88.9351 271.2117 14.34216345202405
IRIDIUM 175             
1 43928U 19002G   22327.29936481  .00000577  00000+0  87584-4 0  9990
2 43928  86.6138 177.5637 0002319  86.3643 273.7840 14.72253072207699
IRIDIUM 171             
1 43929U 19002H   22327.35053566  .00000188  00000+0  60028-4 0  9994
2 43929  86.4010 177.8153 0002273  85.6624 274.4831 14.34221111202367
IRIDIUM 170             
1 43930U 19002J   22327.10783030  .00000571  00000+0  86605-4 0  9990
2 43930  86.6136 177.8135 0002319  87.4530 272.6953 14.72245465207682
IRIDIUM 167             
1 43931U 19002K   22327.13489694  .00000190  00000+0  60820-4 0  9991
2 43931  86.4001 177.7546 0002416  89.1588 270.9884 14.34216107202337
